KAITUO 1B               
1 40912U 15049P   18029.24544157  .00001083  00000-0  55774-4 0  9991
2 40912  97.4516  38.5683 0016833 130.5866 285.8071 15.18405327130587
TIANWANG 1C (TW-1C)     
1 40926U 15051B   18029.08108722  .00007311  00000-0  14713-3 0  9992
2 40926  97.2032  72.1519 0012590  69.9889 346.8647 15.46814655131791
TIANWANG 1B (TW-1B)     
1 40927U 15051C   18029.19056756  .00007282  00000-0  15256-3 0  9994
2 40927  97.2115  72.1678 0012412  80.4474 350.9209 15.45642105131733
TIANWANG 1A (TW-1A)     
1 40928U 15051D   18028.87000870  .00002968  00000-0  81660-4 0  9994
2 40928  97.2026  65.5563 0014179 102.3376 345.2713 15.37865907131365
LAPAN-A2 (IO-86)        
1 40931U 15052B   18028.64562358  .00000728  00000-0  12423-4 0  9991
2 40931   5.9974  65.0874 0012312 196.7965 163.2115 14.76562508126344
LQSAT                   
1 40958U 15057A   18029.18359754  .00000005  00000-0  85452-5 0  9990
2 40958  97.9555 105.2859 0019664  64.4594 295.8661 14.73013312124386
CHUBUSAT-2              
1 41338U 16012B   18028.63192506  .00000335  00000-0  19507-4 0  9997
2 41338  31.0033 120.2581 0013759 131.4029 228.7791 14.99910909106863
CHUBUSAT-3              
1 41339U 16012C   18028.66333432  .00000349  00000-0  20493-4 0  9997
2 41339  31.0078 118.8554 0013436 138.3042 221.8617 15.00103118106858
OUFTI-1                 
1 41458U 16025C   18028.83022798  .00002105  00000-0  11460-3 0  9997
2 41458  98.1543  84.1357 0170343 254.6759 103.5571 15.04192378 96487
E-ST@R-II               
1 41459U 16025D   18028.81385403  .00001822  00000-0  10032-3 0  9990
2 41459  98.1566  84.0125 0170862 255.1652 103.0575 15.03968629 96476
AAUSAT 4                
1 41460U 16025E   18029.11640792  .00001151  00000-0  64854-4 0  9998
2 41460  98.1484  84.6354 0162271 251.1588 107.1995 15.05213070 96562
NUSAT 1 (LO-87)         
1 41557U 16033B   18029.21597233  .00001163  00000-0  45346-4 0  9994
2 41557  97.4463 113.6559 0012371 291.3335  68.6583 15.27948585 92930
BEESAT-4                
1 41619U 16040W   18028.81254436  .00001237  00000-0  57698-4 0  9996
2 41619  97.4343  93.7880 0011764   7.1444 352.9957 15.21698093 76891
PRATHAM                 
1 41783U 16059A   18028.94817390  .00000052  00000-0  19535-4 0  9998
2 41783  98.1378  92.6227 0033935 170.6877 189.4962 14.62897015 71604
ALSAT 1N                
1 41789U 16059G   18029.09068855  .00000074  00000-0  23193-4 0  9994
2 41789  98.1378  93.7066 0028748 162.1777 198.0443 14.64122678 71668
NAYIF-1 (EO-88)         
1 42017U 17008BX  18029.11581810  .00001371  00000-0  59579-4 0  9996
2 42017  97.4670  94.9089 0007555 139.0269 221.1537 15.23986281 52889
LILACSAT-1              
1 42725U 98067ME  18029.13978475  .00016348  00000-0  18002-3 0  9990
2 42725  51.6385 343.9097 0006084  74.5155 285.6511 15.63273027 38735
MAX VALIER SAT          
1 42778U 17036P   18028.92069750  .00000860  00000-0  41859-4 0  9997
2 42778  97.4233  90.8275 0012518 190.4351 169.6626 15.21002523 33338
FOX-1B (AO-91)          
1 43017U 17073E   18028.81586838  .00001040  00000-0  87197-4 0  9990
2 43017  97.6985 325.8510 0260737   5.6108 354.7925 14.77867925 10529
FOX-1D (AO-92)          
1 43137U 18004AC  18028.70322009  .00000906  00000-0  42327-4 0  9990
2 43137  97.5536  90.9046 0008552 221.1854 138.8738 15.22391146  2493
